start=new Date('2021-11-06T00:00:00.000Z').valueOf();
sats=[{"OBJECT_ID":"2021-017AC","TIME_SYSTEM":"UTC","PERIAPSIS":"546.092","SITE":"AFETR","COUNTRY_CODE":"US","FILE":"3204412","RCS_SIZE":"LARGE","MEAN_ANOMALY":"272.7655","CLASSIFICATION_TYPE":"U","BSTAR":"0.00022141000000","APOAPSIS":"548.318","TLE_LINE1":"1 47748U 21017AC  21309.83260575  .00003018  00000-0  22141-3 0  9997","SEMIMAJOR_AXIS":"6925.340","DECAY_DATE":null,"CENTER_NAME":"EARTH","OBJECT_NAME":"STARLINK-2162","GP_ID":"189045389","LAUNCH_DATE":"2021-03-04","PERIOD":"95.592","ARG_OF_PERICENTER":"87.3518","RA_OF_ASC_NODE":"116.3239","MEAN_MOTION":"15.06402739","INCLINATION":"53.0557","MEAN_ELEMENT_THEORY":"SGP4","NORAD_CAT_ID":"47748","REV_AT_EPOCH":"3899","ELEMENT_SET_NO":"999","MEAN_MOTION_DDOT":"0.0000000000000","REF_FRAME":"TEME","MEAN_MOTION_DOT":"0.00003018","EPHEMERIS_TYPE":"0","OBJECT_TYPE":"PAYLOAD","TLE_LINE2":"2 47748  53.0557 116.3239 0001607  87.3518 272.7655 15.06402739 38998","ECCENTRICITY":"0.00016070","EPOCH":"2021-11-05T19:58:57.136800"},{"OBJECT_ID":"2021-017AD","TIME_SYSTEM":"UTC","PERIAPSIS":"546.076","SITE":"AFETR","COUNTRY_CODE":"US","MEAN_ANOMALY":"268.2567","FILE":"3204412","RCS_SIZE":"MEDIUM","CLASSIFICATION_TYPE":"U","BSTAR":"-0.00000075919000","SEMIMAJOR_AXIS":"6925.371","APOAPSIS":"548.396","TLE_LINE1":"1 47749U 21017AD  21309.78100156 -.00000293  00000-0 -75919-6 0  9998","DECAY_DATE":null,"CENTER_NAME":"EARTH","OBJECT_NAME":"STARLINK-2163","GP_ID":"189045631","LAUNCH_DATE":"2021-03-04","PERIOD":"95.593","ARG_OF_PERICENTER":"91.8614","MEAN_MOTION":"15.06392696","RA_OF_ASC_NODE":"116.5364","MEAN_ELEMENT_THEORY":"SGP4","INCLINATION":"53.0550","NORAD_CAT_ID":"47749","REV_AT_EPOCH":"3898","ELEMENT_SET_NO":"999","MEAN_MOTION_DDOT":"0.0000000000000","REF_FRAME":"TEME","EPHEMERIS_TYPE":"0","MEAN_MOTION_DOT":"-0.00000293","TLE_LINE2":"2 47749  53.0550 116.5364 0001675  91.8614 268.2567 15.06392696 38986","OBJECT_TYPE":"PAYLOAD","EPOCH":"2021-11-05T18:44:38.534784","ECCENTRICITY":"0.00016750"},{"APOAPSIS":"548.272","TLE_LINE1":"1 47750U 21017AE  21309.82522525  .00000060  00000-0  22934-4 0  9990","SEMIMAJOR_AXIS":"6925.368","DECAY_DATE":null,"OBJECT_NAME":"STARLINK-2164","CENTER_NAME":"EARTH","LAUNCH_DATE":"2021-03-04","GP_ID":"189046391","PERIAPSIS":"546.193","OBJECT_ID":"2021-017AE","TIME_SYSTEM":"UTC","SITE":"AFETR","COUNTRY_CODE":"US","FILE":"3204412","RCS_SIZE":"LARGE","MEAN_ANOMALY":"269.5050","BSTAR":"0.00002293400000","CLASSIFICATION_TYPE":"U","ELEMENT_SET_NO":"999","MEAN_MOTION_DOT":"0.00000060","EPHEMERIS_TYPE":"0","MEAN_MOTION_DDOT":"0.0000000000000","REF_FRAME":"TEME","ECCENTRICITY":"0.00015010","EPOCH":"2021-11-05T19:48:19.461600","TLE_LINE2":"2 47750  53.0560 116.3494 0001501  90.6111 269.5050 15.06393686 38990","OBJECT_TYPE":"PAYLOAD","MEAN_MOTION":"15.06393686","RA_OF_ASC_NODE":"116.3494","ARG_OF_PERICENTER":"90.6111","PERIOD":"95.593","INCLINATION":"53.0560","MEAN_ELEMENT_THEORY":"SGP4","REV_AT_EPOCH":"3899","NORAD_CAT_ID":"47750"},{"NORAD_CAT_ID":"47751","REV_AT_EPOCH":"3914","INCLINATION":"53.0523","MEAN_ELEMENT_THEORY":"SGP4","PERIOD":"95.592","ARG_OF_PERICENTER":"84.5578","RA_OF_ASC_NODE":"106.2143","MEAN_MOTION":"15.06397841","TLE_LINE2":"2 47751  53.0523 106.2143 0001598  84.5578 275.5593 15.06397841 39148","OBJECT_TYPE":"PAYLOAD","ECCENTRICITY":"0.00015980","EPOCH":"2021-11-05T20:32:06.705024","MEAN_MOTION_DDOT":"0.0000000000000","REF_FRAME":"TEME","MEAN_MOTION_DOT":"-0.00000065","EPHEMERIS_TYPE":"0","ELEMENT_SET_NO":"999","CLASSIFICATION_TYPE":"U","BSTAR":"0.00001456000000","RCS_SIZE":"LARGE","FILE":"3204412","MEAN_ANOMALY":"275.5593","SITE":"AFETR","COUNTRY_CODE":"US","TIME_SYSTEM":"UTC","OBJECT_ID":"2021-017AF","PERIAPSIS":"546.114","GP_ID":"189046618","LAUNCH_DATE":"2021-03-04","CENTER_NAME":"EARTH","OBJECT_NAME":"STARLINK-2168","DECAY_DATE":null,"APOAPSIS":"548.327","TLE_LINE1":"1 47751U 21017AF  21309.85563316 -.00000065  00000-0  14560-4 0  9999","SEMIMAJOR_AXIS":"6925.355"},{"OBJECT_ID":"2021-017AG","TIME_SYSTEM":"UTC","PERIAPSIS":"546.091","SITE":"AFETR","COUNTRY_CODE":"US","MEAN_ANOMALY":"267.2220","RCS_SIZE":"MEDIUM","FILE":"3204412","CLASSIFICATION_TYPE":"U","BSTAR":"-0.00011870000000","SEMIMAJOR_AXIS":"6925.404","TLE_LINE1":"1 47752U 21017AG  21309.82294459 -.00002048  00000-0 -11870-3 0  9990","APOAPSIS":"548.448","DECAY_DATE":null,"CENTER_NAME":"EARTH","OBJECT_NAME":"STARLINK-2169","GP_ID":"189045889","LAUNCH_DATE":"2021-03-04","PERIOD":"95.593","ARG_OF_PERICENTER":"92.8964","RA_OF_ASC_NODE":"121.3698","MEAN_MOTION":"15.06381763","MEAN_ELEMENT_THEORY":"SGP4","INCLINATION":"53.0569","NORAD_CAT_ID":"47752","REV_AT_EPOCH":"3897","ELEMENT_SET_NO":"999","MEAN_MOTION_DDOT":"0.0000000000000","REF_FRAME":"TEME","MEAN_MOTION_DOT":"-0.00002048","EPHEMERIS_TYPE":"0","TLE_LINE2":"2 47752  53.0569 121.3698 0001702  92.8964 267.2220 15.06381763 38971","OBJECT_TYPE":"PAYLOAD","EPOCH":"2021-11-05T19:45:02.412576","ECCENTRICITY":"0.00017020"},{"SITE":"AFETR","COUNTRY_CODE":"US","PERIAPSIS":"546.136","OBJECT_ID":"2021-017AH","TIME_SYSTEM":"UTC","BSTAR":"0.00003308800000","CLASSIFICATION_TYPE":"U","RCS_SIZE":"LARGE","FILE":"3204412","MEAN_ANOMALY":"278.3210","DECAY_DATE":null,"APOAPSIS":"548.288","TLE_LINE1":"1 47753U 21017AH  21309.86484646  .00000211  00000-0  33088-4 0  9998","SEMIMAJOR_AXIS":"6925.347","LAUNCH_DATE":"2021-03-04","GP_ID":"189046131","OBJECT_NAME":"STARLINK-2170","CENTER_NAME":"EARTH","MEAN_MOTION":"15.06400531","RA_OF_ASC_NODE":"126.1604","PERIOD":"95.592","ARG_OF_PERICENTER":"81.7955","REV_AT_EPOCH":"3890","NORAD_CAT_ID":"47753","INCLINATION":"53.0539","MEAN_ELEMENT_THEORY":"SGP4","EPHEMERIS_TYPE":"0","MEAN_MOTION_DOT":"0.00000211","REF_FRAME":"TEME","MEAN_MOTION_DDOT":"0.0000000000000","ELEMENT_SET_NO":"999","ECCENTRICITY":"0.00015540","EPOCH":"2021-11-05T20:45:22.734144","OBJECT_TYPE":"PAYLOAD","TLE_LINE2":"2 47753  53.0539 126.1604 0001554  81.7955 278.3210 15.06400531 38901"},{"MEAN_MOTION":"15.06404982","RA_OF_ASC_NODE":"126.3014","ARG_OF_PERICENTER":"85.1776","PERIOD":"95.592","REV_AT_EPOCH":"3886","NORAD_CAT_ID":"47754","INCLINATION":"53.0540","MEAN_ELEMENT_THEORY":"SGP4","EPHEMERIS_TYPE":"0","MEAN_MOTION_DOT":"0.00003090","MEAN_MOTION_DDOT":"0.0000000000000","REF_FRAME":"TEME","ELEMENT_SET_NO":"999","ECCENTRICITY":"0.00016840","EPOCH":"2021-11-05T20:02:55.867776","OBJECT_TYPE":"PAYLOAD","TLE_LINE2":"2 47754  53.0540 126.3014 0001684  85.1776 274.9405 15.06404982 38861","COUNTRY_CODE":"US","SITE":"AFETR","PERIAPSIS":"546.032","OBJECT_ID":"2021-017AJ","TIME_SYSTEM":"UTC","BSTAR":"0.00022619000000","CLASSIFICATION_TYPE":"U","FILE":"3204412","RCS_SIZE":"LARGE","MEAN_ANOMALY":"274.9405","DECAY_DATE":null,"TLE_LINE1":"1 47754U 21017AJ  21309.83536884  .00003090  00000-0  22619-3 0  9993","APOAPSIS":"548.365","SEMIMAJOR_AXIS":"6925.333","LAUNCH_DATE":"2021-03-04","GP_ID":"189046891","OBJECT_NAME":"STARLINK-2171","CENTER_NAME":"EARTH"},{"CLASSIFICATION_TYPE":"U","BSTAR":"0.00002136100000","MEAN_ANOMALY":"272.2094","RCS_SIZE":"LARGE","FILE":"3204412","SITE":"AFETR","COUNTRY_CODE":"US","TIME_SYSTEM":"UTC","OBJECT_ID":"2021-017AK","PERIAPSIS":"545.939","GP_ID":"189047118","LAUNCH_DATE":"2021-03-04","CENTER_NAME":"EARTH","OBJECT_NAME":"STARLINK-2172","DECAY_DATE":null,"SEMIMAJOR_AXIS":"6925.353","APOAPSIS":"548.496","TLE_LINE1":"1 47755U 21017AK  21309.88832618  .00000037  00000-0  21361-4 0  9995","NORAD_CAT_ID":"47755","REV_AT_EPOCH":"3893","MEAN_ELEMENT_THEORY":"SGP4","INCLINATION":"53.0570","ARG_OF_PERICENTER":"87.9106","PERIOD":"95.592","MEAN_MOTION":"15.06398591","RA_OF_ASC_NODE":"121.0775","TLE_LINE2":"2 47755  53.0570 121.0775 0001846  87.9106 272.2094 15.06398591 38939","OBJECT_TYPE":"PAYLOAD","EPOCH":"2021-11-05T21:19:11.381952","ECCENTRICITY":"0.00018460","REF_FRAME":"TEME","MEAN_MOTION_DDOT":"0.0000000000000","EPHEMERIS_TYPE":"0","MEAN_MOTION_DOT":"0.00000037","ELEMENT_SET_NO":"999"},{"NORAD_CAT_ID":"47756","REV_AT_EPOCH":"3891","MEAN_ELEMENT_THEORY":"SGP4","INCLINATION":"53.0550","ARG_OF_PERICENTER":"79.5486","PERIOD":"95.593","MEAN_MOTION":"15.06390296","RA_OF_ASC_NODE":"126.0247","TLE_LINE2":"2 47756  53.0550 126.0247 0001562  79.5486 280.5678 15.06390296 38912","OBJECT_TYPE":"PAYLOAD","EPOCH":"2021-11-05T21:33:10.147968","ECCENTRICITY":"0.00015620","REF_FRAME":"TEME","MEAN_MOTION_DDOT":"0.0000000000000","MEAN_MOTION_DOT":"-0.00000819","EPHEMERIS_TYPE":"0","ELEMENT_SET_NO":"999","CLASSIFICATION_TYPE":"U","BSTAR":"-0.00003607700000","MEAN_ANOMALY":"280.5678","FILE":"3204412","RCS_SIZE":"LARGE","SITE":"AFETR","COUNTRY_CODE":"US","TIME_SYSTEM":"UTC","OBJECT_ID":"2021-017AL","PERIAPSIS":"546.162","GP_ID":"189045390","LAUNCH_DATE":"2021-03-04","CENTER_NAME":"EARTH","OBJECT_NAME":"STARLINK-2174","DECAY_DATE":null,"SEMIMAJOR_AXIS":"6925.378","APOAPSIS":"548.325","TLE_LINE1":"1 47756U 21017AL  21309.89803412 -.00000819  00000-0 -36077-4 0  9997"},{"LAUNCH_DATE":"2021-03-04","GP_ID":"189045632","OBJECT_NAME":"STARLINK-2175","CENTER_NAME":"EARTH","DECAY_DATE":null,"SEMIMAJOR_AXIS":"6925.379","APOAPSIS":"548.441","TLE_LINE1":"1 47757U 21017AM  21309.88329487  .00001435  00000-0  11526-3 0  9996","BSTAR":"0.00011526000000","CLASSIFICATION_TYPE":"U","MEAN_ANOMALY":"273.7747","RCS_SIZE":"MEDIUM","FILE":"3204412","COUNTRY_CODE":"US","SITE":"AFETR","PERIAPSIS":"546.047","TIME_SYSTEM":"UTC","OBJECT_ID":"2021-017AM","EPOCH":"2021-11-05T21:11:56.676768","ECCENTRICITY":"0.00017290","OBJECT_TYPE":"PAYLOAD","TLE_LINE2":"2 47757  53.0560 126.0884 0001729  86.3440 273.7747 15.06390058 38852","MEAN_MOTION_DOT":"0.00001435","EPHEMERIS_TYPE":"0","MEAN_MOTION_DDOT":"0.0000000000000","REF_FRAME":"TEME","ELEMENT_SET_NO":"999","REV_AT_EPOCH":"3885","NORAD_CAT_ID":"47757","MEAN_ELEMENT_THEORY":"SGP4","INCLINATION":"53.0560","MEAN_MOTION":"15.06390058","RA_OF_ASC_NODE":"126.0884","PERIOD":"95.593","ARG_OF_PERICENTER":"86.3440"}];
